NORAD_CAT_ID,OBJECT_NAME,OBJECT_TYPE,EPOCH,MEAN_MOTION,ECCENTRICITY,INCLINATION,RA_OF_ASC_NODE,ARG_OF_PERICENTER,MEAN_ANOMALY,BSTAR,MEAN_MOTION_DOT,MEAN_MOTION_DDOT,TLE_LINE0,TLE_LINE1,TLE_LINE2,SEMIMAJOR_AXIS,PERIOD,APOGEE,PERIGEE,DECAYED
55415.0,STARLINK-5618,PAYLOAD,2024-08-13 14:24:25,14.98312578,0.000355,69.9989,89.2303,266.7002,93.3751,-0.00022262,-2.747e-05,0.0,0 STARLINK-5618,1 55415U 23014AA  24226.60029958 -.00002747  00000-0 -22262-3 0  9994,2 55415  69.9989  89.2303 0003550 266.7002  93.3751 14.98312578 85721,6950.247,96.108,574.579,569.644,0.0
55415.0,STARLINK-5618,PAYLOAD,2024-08-13 22:25:06,14.98311651,0.0003545,69.9988,88.3887,267.0552,93.0202,-0.00013167,-1.663e-05,0.0,0 STARLINK-5618,1 55415U 23014AA  24226.93410251 -.00001663  00000-0 -13167-3 0  9990,2 55415  69.9988  88.3887 0003545 267.0552  93.0202 14.98311651 85779,6950.25,96.108,574.578,569.651,0.0
55415.0,STARLINK-5618,PAYLOAD,2024-08-14 01:37:22,14.98311218,0.0003548,70.0003,88.0521,267.2725,92.8028,-0.0002467,-3.034e-05,0.0,0 STARLINK-5618,1 55415U 23014AA  24227.06761715 -.00003034  00000-0 -24670-3 0  9994,2 55415  70.0003  88.0521 0003548 267.2725  92.8028 14.98311218 84859,6950.251,96.108,574.582,569.65,0.0
55415.0,STARLINK-5618,PAYLOAD,2024-08-14 08:01:54,14.9831554,0.0003561,70.0002,87.3789,266.7968,93.2784,-0.00018577,-2.308e-05,0.0,0 STARLINK-5618,1 55415U 23014AA  24227.33465758 -.00002308  00000-0 -18577-3 0  9994,2 55415  70.0002  87.3789 0003561 266.7968  93.2784 14.98315540 85839,6950.238,96.108,574.578,569.628,0.0
55415.0,STARLINK-5618,PAYLOAD,2024-08-14 20:50:58,14.98329848,0.0003534,70.0007,86.0323,265.3264,94.7492,0.00037908,4.433e-05,0.0,0 STARLINK-5618,1 55415U 23014AA  24227.86873614  .00004433  00000-0  37908-3 0  9994,2 55415  70.0007  86.0323 0003534 265.3264  94.7492 14.98329848 84970,6950.193,96.107,574.515,569.602,0.0
55415.0,STARLINK-5618,PAYLOAD,2024-08-14 22:27:06,14.98332916,0.0003487,70.0009,85.864,265.8341,94.242,0.00069963,8.266e-05,0.0,0 STARLINK-5618,1 55415U 23014AA  24227.93549723  .00008266  00000-0  69963-3 0  9997,2 55415  70.0009  85.8640 0003487 265.8341  94.2420 14.98332916 85921,6950.184,96.107,574.472,569.625,0.0
55415.0,STARLINK-5618,PAYLOAD,2024-08-15 08:03:55,14.9834515,0.0003511,70.0011,84.854,265.3496,94.7262,0.0010803,0.00012826,0.0,0 STARLINK-5618,1 55415U 23014AA  24228.33605694  .00012826  00000-0  10803-2 0  9997,2 55415  70.0011  84.8540 0003511 265.3496  94.7262 14.98345150 85985,6950.146,96.106,574.451,569.571,0.0
55415.0,STARLINK-5618,PAYLOAD,2024-08-15 20:52:59,14.98355641,0.000352,70.001,83.5074,265.2684,94.8073,0.00084165,9.971e-05,0.0,0 STARLINK-5618,1 55415U 23014AA  24228.87012968  .00009971  00000-0  84165-3 0  9992,2 55415  70.0010  83.5074 0003520 265.2684  94.8073 14.98355641 85123,6950.114,96.105,574.425,569.532,0.0
55415.0,STARLINK-5618,PAYLOAD,2024-08-15 22:29:07,14.98358506,0.0003513,70.001,83.3392,265.4875,94.5883,0.00091432,0.00010842,0.0,0 STARLINK-5618,1 55415U 23014AA  24228.93688821  .00010842  00000-0  91432-3 0  9990,2 55415  70.0010  83.3392 0003513 265.4875  94.5883 14.98358506 86074,6950.105,96.105,574.411,569.528,0.0
55415.0,STARLINK-5618,PAYLOAD,2024-08-16 00:05:15,14.98359466,0.0003519,70.001,83.1709,265.5486,94.5271,0.00088872,0.00010535,0.0,0 STARLINK-5618,1 55415U 23014AA  24229.00364703  .00010535  00000-0  88872-3 0  9992,2 55415  70.0010  83.1709 0003519 265.5486  94.5271 14.98359466 86087,6950.102,96.105,574.413,569.521,0.0
55415.0,STARLINK-5618,PAYLOAD,2024-08-17 00:07:15,14.98349478,0.000345,70.0009,80.6458,264.8754,95.2011,0.00050515,5.943e-05,0.0,0 STARLINK-5618,1 55415U 23014AA  24230.00504017  .00005943  00000-0  50515-3 0  9998,2 55415  70.0009  80.6458 0003450 264.8754  95.2011 14.98349478 85296,6950.133,96.106,574.395,569.6,0.0
55415.0,STARLINK-5618,PAYLOAD,2024-08-18 00:09:16,14.98333287,0.0003448,70.0014,78.1214,266.1299,93.9466,7.1768e-05,7.63e-06,0.0,0 STARLINK-5618,1 55415U 23014AA  24231.00644046  .00000763  00000-0  71768-4 0  9995,2 55415  70.0014  78.1214 0003448 266.1299  93.9466 14.98333287 85447,6950.183,96.107,574.444,569.651,0.0
55415.0,STARLINK-5618,PAYLOAD,2024-08-18 22:35:09,14.98338065,0.000336,70.0007,75.7641,262.4657,97.612,0.00018831,2.155e-05,0.0,0 STARLINK-5618,1 55415U 23014AA  24231.94107675  .00002155  00000-0  18831-3 0  9998,2 55415  70.0007  75.7641 0003360 262.4657  97.6120 14.98338065 86523,6950.168,96.106,574.368,569.698,0.0
55415.0,STARLINK-5618,PAYLOAD,2024-08-19 00:11:17,14.98338065,0.0003363,70.0006,75.5957,262.9748,97.1029,0.00018144,2.073e-05,0.0,0 STARLINK-5618,1 55415U 23014AA  24232.00783654  .00002073  00000-0  18144-3 0  9999,2 55415  70.0006  75.5957 0003363 262.9748  97.1029 14.98338065 85598,6950.168,96.106,574.37,569.696,0.0
55415.0,STARLINK-5618,PAYLOAD,2024-08-19 13:00:21,14.98331722,0.0003235,70.0008,74.2493,268.9468,91.132,7.8274e-05,8.41e-06,0.0,0 STARLINK-5618,1 55415U 23014AA  24232.54191984  .00000841  00000-0  78274-4 0  9999,2 55415  70.0008  74.2493 0003235 268.9468  91.1320 14.98331722 85674,6950.188,96.107,574.301,569.804,0.0
55415.0,STARLINK-5618,PAYLOAD,2024-08-20 14:38:30,14.98337058,0.0003278,69.9997,71.556,268.7834,91.2949,9.6405e-05,1.058e-05,0.0,0 STARLINK-5618,1 55415U 23014AA  24233.61007641  .00001058  00000-0  96405-4 0  9991,2 55415  69.9997  71.5560 0003278 268.7834  91.2949 14.98337058 86773,6950.171,96.107,574.314,569.758,0.0
55415.0,STARLINK-5618,PAYLOAD,2024-08-20 21:03:02,14.9833769,0.0003284,69.9997,70.8827,268.8293,91.249,9.1125e-05,9.95e-06,0.0,0 STARLINK-5618,1 55415U 23014AA  24233.87711491  .00000995  00000-0  91125-4 0  9997,2 55415  69.9997  70.8827 0003284 268.8293  91.2490 14.98337690 85871,6950.169,96.107,574.317,569.752,0.0
55415.0,STARLINK-5618,PAYLOAD,2024-08-21 14:40:31,14.98327876,0.000327,69.9996,69.0307,269.4577,90.6208,6.5835e-05,6.93e-06,0.0,0 STARLINK-5618,1 55415U 23014AA  24234.61148145  .00000693  00000-0  65835-4 0  9994,2 55415  69.9996  69.0307 0003270 269.4577  90.6208 14.98327876 86922,6950.199,96.107,574.337,569.792,0.0
55415.0,STARLINK-5618,PAYLOAD,2024-08-21 17:52:48,14.98327757,0.0003282,69.9995,68.6941,269.3251,90.7532,5.8172e-05,6.01e-06,0.0,0 STARLINK-5618,1 55415U 23014AA  24234.74500167  .00000601  00000-0  58172-4 0  9999,2 55415  69.9995  68.6941 0003282 269.3251  90.7532 14.98327757 86009,6950.2,96.107,574.346,569.784,0.0
55415.0,STARLINK-5618,PAYLOAD,2024-08-21 19:28:56,14.98327877,0.0003265,69.9995,68.5258,269.1172,90.9613,6.4695e-05,6.79e-06,0.0,0 STARLINK-5618,1 55415U 23014AA  24234.81176146  .00000679  00000-0  64695-4 0  9995,2 55415  69.9995  68.5258 0003265 269.1172  90.9613 14.98327877 86959,6950.199,96.107,574.334,569.795,0.0
